{"type":"FeatureCollection","crs":{"type":"name","properties":{"name":"EPSG:4326"}},"features":[{"type":"Feature","id":1,"geometry":{"type":"Polygon","coordinates":[[[18.308778356339005,49.844176772083017],[18.30823690986379,49.844110057783581],[18.307695464842524,49.844043340982772],[18.307325161466718,49.843973804092762],[18.306940850614229,49.84386668237304],[18.306600652627495,49.843712915122744],[18.306666058641394,49.844366855071399],[18.30620270329522,49.844427149049217],[18.306301136599782,49.845549186903185],[18.30664399432818,49.846831970144933],[18.305698876912945,49.846804296288994],[18.305386201070633,49.846872913341642],[18.305053687076406,49.845799291826907],[18.305380364304074,49.845768260355825],[18.305181023871899,49.845266432963292],[18.305032239846511,49.84466923502891],[18.304914695311115,49.844122844167678],[18.304751429540474,49.843635278172165],[18.304094882673553,49.843721698095187],[18.303897656933191,49.843060467970254],[18.304229145951012,49.842992896705347],[18.304113222928212,49.842434322911487],[18.304447278719916,49.842060134157066],[18.305480047522146,49.84214174736843],[18.306174901770994,49.842339655727827],[18.306699760980266,49.842675411879888],[18.30709002601585,49.84288102731491],[18.307442620635019,49.843084559447881],[18.307759154432194,49.843273828839656],[18.308133809323191,49.843454036938546],[18.308456783220841,49.843594578696163],[18.308869584304176,49.84362964761204],[18.308778356339005,49.844176772083017]]]},"properties":{"OBJECTID":1,"SHAPE_Length":1718.1511615669028,"SHAPE_Area":76848.05305496139,"ID":9,"CISLO":"9","TEXT":"Území, na které se vztahuje nařízení města č. 2/2020, kterým se stanoví zákaz šíření reklamy na veřejně přístupných místech mimo provozovnu."}},{"type":"Feature","id":2,"geometry":{"type":"Polygon","coordinates":[[[18.300731018265061,49.831981993536431],[18.299440301829613,49.831471313001643],[18.298966438305833,49.83125887951558],[18.298663868078055,49.831146643142205],[18.29852000940182,49.831062286256831],[18.298468281195809,49.831006900621531],[18.298406910878889,49.830912783289534],[18.298386374226002,49.830844799964112],[18.298388449706827,49.830773292702503],[18.298417955486318,49.830717627636147],[18.298454788317613,49.830662367081224],[18.298492875934969,49.830597627537117],[18.298582259366224,49.830535725331792],[18.298907581256792,49.830420031266449],[18.29886062690548,49.830216890638631],[18.299787843739153,49.830015123690877],[18.30027625195147,49.829894122894096],[18.300697454199991,49.82977895301088],[18.300948672072156,49.829721225673381],[18.301045813664704,49.829712274295737],[18.301180220238471,49.829700609762021],[18.301223614781954,49.829874902433481],[18.301307843969887,49.830075328108421],[18.301450071431791,49.830283735550729],[18.301519836820333,49.830426063524087],[18.301523651217561,49.830564743987395],[18.301462140757412,49.830695035616415],[18.301065391830249,49.831351114842533],[18.300731018265061,49.831981993536431]]]},"properties":{"OBJECTID":2,"SHAPE_Length":748.27549217235094,"SHAPE_Area":34722.572274951628,"ID":11,"CISLO":"11","TEXT":"Území, na které se vztahuje nařízení města č. 2/2020, kterým se stanoví zákaz šíření reklamy na veřejně přístupných místech mimo provozovnu."}},{"type":"Feature","id":3,"geometry":{"type":"Polygon","coordinates":[[[18.307009381312948,49.83137387260728],[18.306692817713053,49.831151240672469],[18.306391474024917,49.83094436771114],[18.30501497404261,49.831543385278572],[18.304661292350151,49.831732704818911],[18.304742661192403,49.83194607131886],[18.304481741042608,49.832218843737813],[18.304477045801825,49.832341668571431],[18.304701964175532,49.832428696961756],[18.305430544936844,49.832718864536808],[18.305369875857103,49.832741619931433],[18.305071078265815,49.832777323058288],[18.304539628095679,49.832609944011352],[18.304013906555912,49.832442879027539],[18.304039886503219,49.832377179101833],[18.304019237893449,49.832271603199032],[18.304013464139942,49.832140740092022],[18.303930680402196,49.832069027426833],[18.303165520749502,49.831881261489748],[18.304002598645397,49.831524720671638],[18.304614020807257,49.831304893000301],[18.305745752577188,49.830856464060226],[18.308932371022689,49.829648788570267],[18.309061157847378,49.829808824679489],[18.309223927804315,49.83023555267512],[18.307009381312948,49.83137387260728]]]},"properties":{"OBJECTID":3,"SHAPE_Length":1342.344794817247,"SHAPE_Area":31434.99938333924,"ID":12,"CISLO":"12","TEXT":"Území, na které se vztahuje nařízení města č. 2/2020, kterým se stanoví zákaz šíření reklamy na veřejně přístupných místech mimo provozovnu."}},{"type":"Feature","id":4,"geometry":{"type":"Polygon","coordinates":[[[18.1615184743562,49.844444769385383],[18.161267271303707,49.843570975917729],[18.1614825011162,49.843344355997651],[18.162396995440488,49.843407952058854],[18.163960759214081,49.843448512308875],[18.165469560241089,49.843485948577516],[18.166932993266318,49.843449171630269],[18.168672851973685,49.843416036816244],[18.168671988409411,49.843559254579034],[18.170136278861634,49.843379219883737],[18.170932233910051,49.843089836710412],[18.171733828162189,49.842621684895541],[18.17317870123593,49.843132968212629],[18.173758617299306,49.843213423209313],[18.17398073139891,49.843619926359231],[18.175184271824811,49.844141451461709],[18.175764377195808,49.843672726037227],[18.176827909593797,49.843589406504691],[18.17687657075621,49.843365313308645],[18.177104421580996,49.843318461019841],[18.177298820135334,49.843245846042628],[18.177535410746007,49.843271117546685],[18.177808646791071,49.843298453580942],[18.178345541075029,49.843424216877594],[18.180552193429417,49.843488839611915],[18.180477247279683,49.843771145147642],[18.181159963718844,49.843773783616825],[18.18164355504069,49.843610001303368],[18.182138258887626,49.843637860952079],[18.182086272372064,49.84470940942456],[18.181348573902604,49.8447036814865],[18.181341364371242,49.844894293511338],[18.178686086292554,49.845007371059992],[18.178255842648554,49.845186086888916],[18.177808111374105,49.845220552012059],[18.177513348684744,49.845215880602211],[18.177000307449916,49.845186968866187],[18.176454573069478,49.845263660807333],[18.175751914789789,49.845271811597293],[18.174736172221799,49.845274246990897],[18.174712304693866,49.845177391226926],[18.17387659681383,49.84521384652399],[18.173798060545348,49.84429013512198],[18.172137001964732,49.844423302260182],[18.170619319599634,49.84458841180502],[18.169978770696353,49.844683602481851],[18.169324693016595,49.84474220968626],[18.168627573741162,49.844846140964158],[18.166486027899069,49.845119259369611],[18.166248987069935,49.844413425896157],[18.163406394060033,49.84468272950334],[18.163182763775374,49.844288054749178],[18.1615184743562,49.844444769385383]]]},"properties":{"OBJECTID":4,"SHAPE_Length":3660.8080078808202,"SHAPE_Area":226461.47513492295,"ID":2,"CISLO":"2","TEXT":"Území, na které se vztahuje nařízení města č. 2/2020, kterým se stanoví zákaz šíření reklamy na veřejně přístupných místech mimo provozovnu."}},{"type":"Feature","id":5,"geometry":{"type":"Polygon","coordinates":[[[18.256335533414745,49.794239835252121],[18.256957313944461,49.792615132024977],[18.259596748897515,49.793012901301658],[18.262014988840011,49.793410229130828],[18.263187511873522,49.793606835351753],[18.266501209115717,49.794065858145721],[18.264369761764812,49.795534939297333],[18.264249894911067,49.795743145006426],[18.263969811302754,49.796324439061159],[18.263230272175274,49.796199703443236],[18.263267472355338,49.796058521302811],[18.263072401829689,49.795999910284614],[18.262380703928738,49.796486656224737],[18.262170868693431,49.796677913104752],[18.261913395260432,49.796950081655048],[18.26181339581251,49.797147454323522],[18.261647653551179,49.797006909543796],[18.26184233578514,49.796790933573277],[18.261959065756297,49.796606430120704],[18.262107880662089,49.796041705795638],[18.262580693548244,49.796091908755415],[18.263165697991415,49.795575346573251],[18.263263126660451,49.79525845176218],[18.260988082487394,49.794893007527826],[18.256335533414745,49.794239835252121]]]},"properties":{"OBJECTID":5,"SHAPE_Length":2240.0817902715348,"SHAPE_Area":130345.96619917915,"ID":6,"CISLO":"6","TEXT":"Území, na které se vztahuje nařízení města č. 2/2020, kterým se stanoví zákaz šíření reklamy na veřejně přístupných místech mimo provozovnu."}},{"type":"Feature","id":6,"geometry":{"type":"Polygon","coordinates":[[[18.29610542595389,49.840219502725908],[18.296098784343261,49.840018593591978],[18.29610690048521,49.839789851439036],[18.295966452567253,49.839595861597068],[18.29639198229119,49.839225489189019],[18.296651072113015,49.839024959848338],[18.297053017326011,49.838581658465522],[18.297415683920359,49.83810037037059],[18.297855232898677,49.83737265896783],[18.298137750429589,49.836743691779752],[18.298283775006379,49.836644337472926],[18.298415985374884,49.836565705770177],[18.298632379570154,49.836520380045926],[18.298797276871429,49.836529502563863],[18.299047300553102,49.836564820137944],[18.299260584580423,49.836626754451459],[18.299598555009084,49.83666693576891],[18.299819359987197,49.836671987585106],[18.300139105072258,49.836682510502719],[18.30010272814058,49.836873877701422],[18.299891976010812,49.83687654514425],[18.299701328711031,49.836894648640211],[18.299296166511439,49.836943859715646],[18.299327049203004,49.837296515407829],[18.299235341195203,49.837320091157451],[18.298895615230393,49.838884143491121],[18.298335873745209,49.838846015711248],[18.298231936863196,49.838962023180194],[18.297913117840928,49.838944384519785],[18.297790370024135,49.839202594689851],[18.29774957243314,49.839343582136323],[18.297731702991975,49.839478674586346],[18.297705368698345,49.839677759733405],[18.297612421803635,49.839794374843557],[18.29754587329116,49.839962585344814],[18.297511366391241,49.840139731275627],[18.297513602854149,49.840290261396675],[18.297545999246857,49.840463946297476],[18.29610542595389,49.840219502725908]]]},"properties":{"OBJECTID":6,"SHAPE_Length":1244.83223931106,"SHAPE_Area":47194.834192799404,"ID":10,"CISLO":"10","TEXT":"Území, na které se vztahuje nařízení města č. 2/2020, kterým se stanoví zákaz šíření reklamy na veřejně přístupných místech mimo provozovnu."}},{"type":"Feature","id":7,"geometry":{"type":"Polygon","coordinates":[[[18.120448403879475,49.841083478307233],[18.121623281869081,49.840371802603087],[18.123003827308882,49.841352887272002],[18.122949494431726,49.841698431782262],[18.122845549975729,49.841974298198515],[18.122729768228989,49.842282921816228],[18.122617358075434,49.842458013692351],[18.121979174960401,49.842861120921668],[18.12179065875857,49.842998457078657],[18.122570804721565,49.843615886322063],[18.122690237784198,49.843660879908917],[18.123070674698084,49.843687273225385],[18.123352377201677,49.843679399843147],[18.123793772208593,49.843637616706076],[18.1240879522,49.843592245469253],[18.124304094230375,49.843523336807024],[18.124693199704122,49.843268445171283],[18.12497019481513,49.842968978197007],[18.125377466618179,49.843178369441603],[18.125575187396556,49.843299442462389],[18.125669168870541,49.843314331757107],[18.125782313653865,49.843296879631765],[18.126172799385657,49.843194887144804],[18.127303885605436,49.842805422362872],[18.127938665540245,49.84253581801336],[18.128298931984943,49.842384346239044],[18.128674748912491,49.842281514183448],[18.128900134922919,49.842198793508885],[18.129498623707111,49.842142030006855],[18.130354633505238,49.842037796625185],[18.130512892819855,49.842123191505905],[18.131570503402834,49.841839362021418],[18.131834431095832,49.842288931795707],[18.130120337887909,49.842621467381527],[18.129019374964798,49.842898048040986],[18.127755244341742,49.843179683465685],[18.126513084661291,49.843462552970387],[18.126314176826337,49.843513341822586],[18.126312743325737,49.843632654817952],[18.124824462748315,49.843987493414616],[18.124670167444414,49.844036037834321],[18.124836742085208,49.844332047399831],[18.124904728993599,49.844483958534894],[18.124756714374659,49.845301760459655],[18.124771866670816,49.845407689300728],[18.124828416732644,49.845535071231417],[18.124885610771283,49.845657714523178],[18.124891503154817,49.845777442822673],[18.124763695197711,49.845794061514155],[18.124743834466646,49.846103359803486],[18.124664752697548,49.846141850503948],[18.124661631446671,49.846327928165572],[18.124713525970563,49.846598318621794],[18.124855151666004,49.846969322679094],[18.125182778372526,49.847656540076208],[18.125268003823034,49.847790326192339],[18.125270779683692,49.848096132859958],[18.125597776052039,49.848788088218242],[18.125961416089261,49.848775309071236],[18.126329829725861,49.849488715753893],[18.125400882679884,49.849693852344579],[18.125369781626286,49.849596571180861],[18.124907881882777,49.849680180466123],[18.124651853271104,49.849063891587804],[18.124198049851206,49.847891927967517],[18.124526723871849,49.847810306943238],[18.124340651276206,49.847549009117238],[18.124103476866868,49.847256153295611],[18.12395402781932,49.847133044030066],[18.123854716873751,49.847048602498155],[18.123624819118167,49.847028378668099],[18.123360098142783,49.846612172283798],[18.123170034248698,49.846135735100951],[18.123084249563124,49.84595176895867],[18.12292454756788,49.84598567698248],[18.122501064391709,49.844944370912096],[18.122432073848245,49.844718376173596],[18.122393163890834,49.844515582159751],[18.122316445275814,49.844346456620698],[18.122281167789811,49.84427997927142],[18.122204217273129,49.844275606416382],[18.122117239327739,49.844263499540546],[18.122039924488867,49.844180304923611],[18.122010443805873,49.844071173888189],[18.121951249323931,49.844017664575418],[18.121841320250148,49.844011417290368],[18.121711339204275,49.84398970294373],[18.121582325808575,49.843960879302948],[18.121468166027938,49.843904246756374],[18.121264371165065,49.843692079896229],[18.121093188188492,49.843402965983245],[18.121097052910553,49.843374529973453],[18.120759418579102,49.843169083000163],[18.120839866785566,49.843066199841296],[18.120925509485279,49.843006594067639],[18.12087018217116,49.842924649063619],[18.120916322827398,49.842748178859509],[18.121005700630242,49.842416564017668],[18.121711852222855,49.841948076855537],[18.120448403879475,49.841083478307233]]]},"properties":{"OBJECTID":7,"SHAPE_Length":3847.3367657433005,"SHAPE_Area":149401.07939726309,"ID":1,"CISLO":"1","TEXT":"Území, na které se vztahuje nařízení města č. 2/2020, kterým se stanoví zákaz šíření reklamy na veřejně přístupných místech mimo provozovnu."}},{"type":"Feature","id":8,"geometry":{"type":"Polygon","coordinates":[[[18.183233689320176,49.837076190322364],[18.182777364609077,49.836599211075431],[18.182664574825512,49.83661434904986],[18.182514023152734,49.836663175670303],[18.182309469668791,49.836701797973966],[18.180627714996966,49.836607068095255],[18.18071721238352,49.836024725842371],[18.181002997747893,49.836040825271134],[18.181196340105426,49.834769502058606],[18.181317244969932,49.834776312887172],[18.18133398068025,49.834734276446731],[18.181927518412056,49.834767709802861],[18.182118695640039,49.834663866902801],[18.183144557513536,49.835681511956182],[18.183448524277988,49.835562528572602],[18.18401284941466,49.836059912277229],[18.183747107715838,49.83622402865484],[18.184063439141308,49.836506878241451],[18.184062948702532,49.836592809555761],[18.183992213057824,49.83662464210127],[18.184105934256145,49.836767145918365],[18.183233689320176,49.837076190322364]]]},"properties":{"OBJECTID":8,"SHAPE_Length":921.48307786498606,"SHAPE_Area":38256.125465658064,"ID":3,"CISLO":"3","TEXT":"Území, na které se vztahuje nařízení města č. 2/2020, kterým se stanoví zákaz šíření reklamy na veřejně přístupných místech mimo provozovnu."}},{"type":"Feature","id":9,"geometry":{"type":"Polygon","coordinates":[[[18.165582940468717,49.834855557929643],[18.163777493631091,49.831685286506122],[18.163855562949834,49.831653879052894],[18.163183247970242,49.830481699522082],[18.163294749997938,49.830476059702981],[18.162543679965555,49.829203912706561],[18.162352515923381,49.829252806840621],[18.160985654776749,49.827074302830916],[18.160797696341991,49.82709949754932],[18.160299607485019,49.826414698788142],[18.161177323696212,49.826201647713688],[18.16103417106676,49.825895081561669],[18.163974696030504,49.825165808278683],[18.164478799847675,49.82512265140614],[18.164926359128923,49.825088237362046],[18.165295858506045,49.825085230055699],[18.165538752838998,49.825063131444608],[18.165751411394474,49.824991569561924],[18.165757952110393,49.824669587132774],[18.165498344160557,49.824678802403369],[18.165227260430502,49.823815823877794],[18.16560314724509,49.823765420861761],[18.165786293795168,49.823775764835787],[18.165919292283878,49.823747459926089],[18.165673933886207,49.822420314627962],[18.166401703085469,49.822497234791413],[18.167211456264571,49.822650413364109],[18.16794316196787,49.822834995728726],[18.168303056218988,49.822903071137844],[18.168666147814388,49.822947447470504],[18.16890902851808,49.822925342716204],[18.169161498595034,49.822832144487499],[18.169394915702533,49.822606542215247],[18.169663360691576,49.822394855548936],[18.170128466809899,49.822230085840879],[18.170941537055359,49.822084952779122],[18.171864488146177,49.821946014826494],[18.1720253758381,49.821847643127889],[18.172845569483872,49.821786472250579],[18.173439603947436,49.821760291935213],[18.173890319868654,49.821702145663139],[18.174359346965758,49.821645031513555],[18.174686652992023,49.821544104964694],[18.175184323841844,49.821548297561392],[18.17633970387088,49.821601516234203],[18.176240735159404,49.822336142664952],[18.176802094848529,49.822415552108779],[18.177181908291761,49.822472784287655],[18.177372194342539,49.822567084224701],[18.177489902830676,49.823063211732453],[18.177632312273349,49.823512976036859],[18.177778753182697,49.823795824691487],[18.177734065865696,49.824127591340577],[18.176681294871511,49.826873854562862],[18.176689193860124,49.827089198704236],[18.176731370865905,49.82718708652758],[18.176761617317833,49.827236547204762],[18.181460434369523,49.826056785112627],[18.181473195588136,49.825961993828756],[18.182413731727124,49.825692635618424],[18.182512462942643,49.825781768146435],[18.183448205878491,49.825547948653771],[18.183760435930729,49.825147679683937],[18.184270899396733,49.825057042092624],[18.185042376954968,49.826318233579691],[18.186323745109622,49.825984465481056],[18.186836509089911,49.826837100298299],[18.186804605436727,49.827348665960827],[18.18725373769059,49.827576905017025],[18.187577822881238,49.82804881496115],[18.18768612894004,49.828066850400397],[18.187911476191399,49.828449631353287],[18.188922104770892,49.828208042464077],[18.188965901864037,49.828294077079818],[18.19278693221538,49.827327121059291],[18.197497351850448,49.82646973150559],[18.200057544766032,49.825956977704706],[18.200763923264979,49.826056353331232],[18.201166057846837,49.825947619882612],[18.204181595537325,49.825066389716852],[18.204415693556644,49.824972087545014],[18.204621105662788,49.82481648326555],[18.204762031849757,49.824728887671846],[18.204865495109864,49.824507866368513],[18.20505576597153,49.824327534071109],[18.20522454272874,49.824169872223244],[18.20550321148659,49.824018378369708],[18.206036705236436,49.823893126492749],[18.207277306995856,49.823723991625812],[18.207716608101645,49.822924897301199],[18.207524585765089,49.822567908578428],[18.207213894093474,49.822132628033806],[18.207127837692255,49.821948722230218],[18.207103917998452,49.82185187221625],[18.206596541117872,49.821369735287917],[18.207124400867428,49.821148657313778],[18.207664213925764,49.820976001812319],[18.208275692554729,49.820819303946784],[18.208389597903896,49.820933140649721],[18.208941364783957,49.82080890413534],[18.209021818537185,49.820896986732542],[18.209475659786971,49.820815006716145],[18.209983264245178,49.821846306812546],[18.209792175146955,49.821895278047741],[18.210234372123026,49.822588632965669],[18.210429591664706,49.822921919124973],[18.210780970333218,49.823466915555599],[18.21107338672191,49.823901158998218],[18.211304618262901,49.824654303898178],[18.211309492782192,49.824893343630848],[18.211275297868823,49.825010808922023],[18.211187741958451,49.825113343218696],[18.211008605313744,49.825210739970828],[18.209440721633726,49.825480939251669],[18.206810565415914,49.825966086601085],[18.206379756895142,49.826013537359877],[18.206178277879328,49.826002228714607],[18.205958481559801,49.825989891552396],[18.205818309111237,49.825934270623343],[18.205146132568967,49.825717461929131],[18.205019509392621,49.825698415237142],[18.20277234918143,49.826216913966313],[18.202651321382991,49.82629368589437],[18.202093114646072,49.826465290277412],[18.202081983386091,49.826548233823296],[18.201159856020407,49.826818778082782],[18.2003507988927,49.82707179118735],[18.199959016032544,49.827240796341187],[18.199314796443101,49.827503063594534],[18.199080677924659,49.827597355629457],[18.198911054051429,49.827623639578597],[18.198616395306061,49.827619020806786],[18.198436410022005,49.82758503033331],[18.198312965409073,49.827542278556592],[18.198164841419018,49.827545892997819],[18.196901830575936,49.827880818604221],[18.19673061292017,49.827918949177814],[18.19639931949899,49.827912265777222],[18.19600670838869,49.827949888798877],[18.195476327140454,49.828051396380111],[18.194026932318341,49.828399692185414],[18.193731490164538,49.828812866545718],[18.189379949491816,49.829881332998099],[18.189414979026608,49.830169830693734],[18.187259036203958,49.830693186782774],[18.18529100878283,49.831191268800353],[18.183663828618176,49.831624946015218],[18.183595341038767,49.83158527269903],[18.182235750582688,49.831950429454679],[18.179632802508486,49.832639494584676],[18.17683861434244,49.833377418667936],[18.17681231367472,49.833435629878856],[18.17595125847533,49.833661679586456],[18.175780093115211,49.833425192325159],[18.174159142888556,49.833811342635926],[18.172932442706397,49.834148076440876],[18.170734716974096,49.834704608275345],[18.169950083548574,49.834911051348612],[18.170087785124043,49.83512178178303],[18.167969653609234,49.835635001660627],[18.167941009449404,49.835573690426081],[18.167310898630511,49.835729143913063],[18.164773992043472,49.835788867496824],[18.163937403761501,49.836243056292432],[18.159363636811818,49.838945512787184],[18.154485711132569,49.84184552102387],[18.151393372869059,49.843688301556483],[18.151261226074102,49.843573373962577],[18.151323516426995,49.843385873160351],[18.154355164383624,49.841718747672218],[18.154487727016335,49.841284500320022],[18.156951012135128,49.83985977169398],[18.157148309680366,49.839082951611282],[18.15979460443015,49.837668519449664],[18.161298214590968,49.836786427430361],[18.162392188515405,49.836203528946868],[18.163366622213811,49.835685503946735],[18.164221526226171,49.835232354689339],[18.164969550475451,49.835023881712701],[18.165582940468717,49.834855557929643]]]},"properties":{"OBJECTID":9,"SHAPE_Length":13627.577099532356,"SHAPE_Area":2263690.3436195464,"ID":4,"CISLO":"4","TEXT":"Území, na které se vztahuje nařízení města č. 2/2020, kterým se stanoví zákaz šíření reklamy na veřejně přístupných místech mimo provozovnu."}},{"type":"Feature","id":10,"geometry":{"type":"Polygon","coordinates":[[[18.269808351544793,49.852791078982939],[18.268373668344836,49.85203103575941],[18.268414027732081,49.851941340628123],[18.267085029040853,49.851242313449411],[18.267093196388149,49.850966953876956],[18.266830314198732,49.850805243217771],[18.26694897366508,49.850554412607956],[18.267482901586455,49.850602473117284],[18.267509590187295,49.850401693471987],[18.268373444621368,49.850320984403794],[18.269023592048416,49.850136458946047],[18.269565670620455,49.849909151104981],[18.26973989566428,49.849882055031301],[18.270381203616004,49.849549930822157],[18.271100785024849,49.849056665200806],[18.271561448692008,49.848585789080218],[18.271780865982379,49.848432488631829],[18.271865551452105,49.848437191942928],[18.272028510772138,49.84828075551745],[18.276062472833232,49.849810222505809],[18.277324135449067,49.848446025787965],[18.277949162394254,49.848664581214521],[18.278587228933073,49.847927715626902],[18.279133325634156,49.84724090795801],[18.279490672790381,49.846690725247356],[18.27963506139065,49.846459700914231],[18.279131816825146,49.846395007968141],[18.279388357807694,49.845747297239036],[18.279911866759331,49.844801811143199],[18.280137676753458,49.844814337424296],[18.280912002794363,49.843478240711022],[18.281217693636282,49.842888415390057],[18.281412848423038,49.842917626398524],[18.281609650741991,49.842505633350278],[18.281449982420018,49.842423229886307],[18.281854856988719,49.841728580006105],[18.281909706162182,49.841529361799957],[18.282666991913196,49.840321023660245],[18.281762234632794,49.840068586072299],[18.281937238165117,49.83982086921111],[18.281770318284895,49.839793224351247],[18.281992906148034,49.83940104903423],[18.281584080781119,49.839268049278182],[18.281915541061945,49.838698039341089],[18.278860309004475,49.837940147488581],[18.279151461412223,49.837459844008478],[18.279317617246328,49.837064541342748],[18.280559559981366,49.835202773901173],[18.281098228941005,49.834570712913759],[18.281856204834991,49.833785328433834],[18.282522239884898,49.833050003543285],[18.279500410718004,49.832257184130285],[18.279389123253257,49.832453270091598],[18.277603316557919,49.831986407421645],[18.277703342959207,49.831660985030304],[18.274858969369568,49.83124563694097],[18.274088061041734,49.831940019018063],[18.27310315204873,49.833271668492962],[18.272302646591889,49.834272647389234],[18.270326720873072,49.833276505161876],[18.268539163050569,49.832449886370149],[18.26698381657415,49.831727056009697],[18.267442967555521,49.831048037830676],[18.266043526280903,49.83060658750211],[18.266361842652415,49.829960468208711],[18.26265971275669,49.829353932278245],[18.262528336698203,49.829273071551519],[18.261743121273376,49.829192602361488],[18.261358711795616,49.828877004324944],[18.259379625715283,49.828582968834802],[18.258777947131556,49.829045944727817],[18.258620792146466,49.828945256403031],[18.258332842163231,49.829186654909435],[18.256297707919966,49.828245866937259],[18.256425148506622,49.828142637258964],[18.252048744713413,49.82749427212503],[18.248177892810165,49.826892319337396],[18.247785315882325,49.826852037782452],[18.247243390909553,49.827079247085052],[18.246933025433947,49.827061935923133],[18.246942756599182,49.826988925522322],[18.243038922153385,49.82642173430029],[18.242128883733617,49.825359582679305],[18.243907807731752,49.825661142574845],[18.24689510513932,49.826066857942209],[18.247114500990655,49.825913602185388],[18.247536742835067,49.826157811765306],[18.24774883855034,49.826059311271585],[18.248121950650987,49.826245614023563],[18.253884647615983,49.827155266391827],[18.25421297132284,49.826824187205936],[18.255020549661381,49.827163386526507],[18.254876101113588,49.82739438363415],[18.258030459654286,49.8278275001041],[18.258288684630809,49.827382179451128],[18.259860556345288,49.827745509730093],[18.260184578492982,49.827873873489949],[18.262410305626499,49.828236785530216],[18.263077787385992,49.828347476580902],[18.264577205833231,49.828614768646808],[18.264529577976955,49.828759221627962],[18.270100196925167,49.829620582801255],[18.270122015436137,49.829456306825051],[18.273241150395638,49.82994220307291],[18.274832592444533,49.830159308095581],[18.275944347156823,49.830349756988433],[18.275983101523121,49.830057707565381],[18.276711917660315,49.830134948172606],[18.277043263011578,49.830208506900981],[18.27723352309205,49.830274230678008],[18.277248895707604,49.82994410983342],[18.278192184287615,49.829904534670845],[18.278191532778049,49.828838024382236],[18.278178772531032,49.82786277992183],[18.278044953968937,49.827800188425599],[18.278091053017977,49.82680982349887],[18.277381655726465,49.826586566495862],[18.277223942494686,49.824775832133682],[18.277213519732719,49.824425891173604],[18.277247419330291,49.824170347038688],[18.277304690768741,49.823952876741195],[18.277766740480001,49.82304076594518],[18.276261242927369,49.821320676994802],[18.275603514752653,49.821137049306344],[18.275500351618092,49.82105776877254],[18.270604591594775,49.819829592375754],[18.270297560536051,49.819573485392731],[18.269942932344154,49.819461833420476],[18.269720337415809,49.819853989370571],[18.266768071409462,49.818972707255973],[18.266864830639236,49.818886149556754],[18.266453791649063,49.818771348851179],[18.26662394709826,49.818560159471694],[18.266238697791017,49.818465179706941],[18.266070966240338,49.818658115946455],[18.265197328498783,49.818388863574597],[18.265319873926433,49.818322129080002],[18.262858573978466,49.817596765413278],[18.262478192450637,49.81746526814711],[18.260096162943441,49.816358105590844],[18.260896052068667,49.815685508941201],[18.261405039930349,49.814849610511892],[18.261513021052902,49.814892396882946],[18.261700170104763,49.814553443740493],[18.26175507281804,49.814354232497323],[18.261523040396515,49.81417582449312],[18.26131436356884,49.814035491412938],[18.261202445724606,49.813808605543819],[18.261255836221483,49.813407041629546],[18.26151881023539,49.812925207158891],[18.261500310255364,49.812850624887929],[18.256837533327531,49.8107337560334],[18.256457777065894,49.811025195576306],[18.254217222661296,49.809925766978687],[18.254206022701599,49.809796425240556],[18.252505370138771,49.808910932241695],[18.252377970881366,49.809014158418925],[18.251444267827612,49.80855755673516],[18.251188955661288,49.808341048325147],[18.251077097618882,49.808114152079874],[18.248406449102937,49.807045776278066],[18.246329625686613,49.806212745669164],[18.245257450220283,49.805729971654955],[18.244775571691349,49.805721461048677],[18.243086285506035,49.806031693994164],[18.242671979034135,49.806155667359505],[18.242592237311523,49.806114437427446],[18.240690898596537,49.80652312774626],[18.237924572407692,49.80638696530994],[18.237610489586654,49.806185528882416],[18.236958367687251,49.806388135772231],[18.234884573911561,49.805959608266654],[18.234501552313287,49.805423312804209],[18.234355669533947,49.805451932846502],[18.2340217508258,49.804973547335791],[18.233786388774288,49.805033939910189],[18.232784680526063,49.803598772460838],[18.232128050293536,49.802771331570973],[18.232076874499743,49.801665146827084],[18.232089065781111,49.800084398903053],[18.231971048415705,49.799691634564113],[18.232326142972312,49.797670348073716],[18.232355384639771,49.79745131936275],[18.232254430766034,49.796930787550721],[18.23247861014244,49.795251562463726],[18.231578764797252,49.795182832455346],[18.231626456273126,49.795038390490042],[18.230273043413892,49.794962661319623],[18.230330547275745,49.793255719335853],[18.229657031591067,49.792556028546493],[18.229772248649624,49.792544088490885],[18.228487914884322,49.791313701291486],[18.226660359257739,49.789685099919126],[18.226580658950034,49.789643859683252],[18.225438596067946,49.790113180348079],[18.224743241457624,49.789577730162662],[18.224235212288374,49.788703379001795],[18.225724241054998,49.788400616750522],[18.225484855662518,49.787853929904522],[18.225259321958344,49.78784129757603],[18.224923965241707,49.786737562979589],[18.224796282993523,49.786417797154897],[18.224687036256491,49.786172620247171],[18.224543642460453,49.786182976084419],[18.223877076415242,49.784582565818532],[18.223705497506575,49.784591342130696],[18.223189952117796,49.783348777750156],[18.222814288239331,49.782334717265925],[18.22264027732157,49.782361744030482],[18.222442693317863,49.781927721810824],[18.221339813653849,49.782104966182274],[18.220885860307298,49.781252009531421],[18.221983842743175,49.781111274335736],[18.221856194304792,49.780791505353861],[18.222089015684087,49.780749387473016],[18.221544272310808,49.779725842443391],[18.221913144887143,49.779728129707891],[18.22205117685597,49.776995887120989],[18.221741135944995,49.776978508121253],[18.222041528361757,49.773243961537922],[18.22343091883333,49.773046001192554],[18.223617090736621,49.772927711795631],[18.223868302436156,49.772960179229401],[18.224171002696785,49.773032309955781],[18.224207859002359,49.773181488274368],[18.224179148139122,49.774246448065234],[18.224960194123543,49.774988997573885],[18.224886244164193,49.77618014500095],[18.224519836774331,49.776159614909993],[18.224408213783313,49.777845155344792],[18.224116596639618,49.777902371167578],[18.223948857428038,49.780007715565723],[18.225293030909082,49.783337882197031],[18.225551611491966,49.783315588576883],[18.225734598415468,49.783859118603694],[18.225779365711325,49.784799465541759],[18.225759856619749,49.78494548382357],[18.226149160301805,49.786070627423619],[18.226005767002462,49.786080985942441],[18.226399962662736,49.787169622240313],[18.226602481255394,49.787567131746563],[18.226745877372093,49.787556772416281],[18.227140865526824,49.78800183668266],[18.227795222773668,49.78778103210486],[18.228702874991139,49.788640959112342],[18.227530225532117,49.789126973191102],[18.229598287232662,49.791081632771515],[18.230497721969098,49.79072741699202],[18.230998948735827,49.790589967101724],[18.231812737225262,49.790451614830516],[18.232649842751876,49.79035133947297],[18.23383397212956,49.790417579861725],[18.235992710520726,49.790630252517651],[18.236521088202021,49.790714962211752],[18.236514807863983,49.790549113042026],[18.238288585521342,49.790666662965222],[18.238318814532871,49.790227024598487],[18.239333786241275,49.79028375377279],[18.239302554203892,49.790943999988805],[18.240794408774967,49.791045754569765],[18.24081144232791,49.790917985699842],[18.241654834593664,49.790983495916642],[18.241929046869604,49.790631043772045],[18.242120106237675,49.790476219369062],[18.242360254045586,49.790379303435017],[18.242741370141974,49.790290261454054],[18.243335873207137,49.790305079879069],[18.243807870403071,49.790386606287164],[18.244293474314137,49.790579223378458],[18.244842763564964,49.790720228072935],[18.245307473456197,49.790856507462401],[18.24564823642665,49.790857145632152],[18.246116362675249,49.790754561801585],[18.24646053610347,49.790516337581664],[18.246908737688091,49.790136811863157],[18.249482691317372,49.792137698821406],[18.249768536279674,49.792337532481923],[18.250277516382877,49.792568202553369],[18.25150199705779,49.791478043861119],[18.252197585654852,49.790946804558978],[18.253662107135007,49.789759687246558],[18.254393127356149,49.789175247429341],[18.254287637332251,49.789114200376432],[18.254685178011236,49.788474386835084],[18.254309898868271,49.788306355487464],[18.255173480379096,49.78693860704098],[18.254969794992849,49.78676175370056],[18.255308496180216,49.786137047086747],[18.254984617919295,49.784942135412564],[18.253902163806529,49.784753053663067],[18.253959493767251,49.784535590887984],[18.252570245831986,49.783023808313196],[18.253019807348768,49.782846613020006],[18.250680919195638,49.780362404124112],[18.251302023072355,49.780176399610667],[18.249744821814772,49.778434536136245],[18.250038841295581,49.778359003203043],[18.249597069481062,49.777837856886933],[18.249634973633825,49.777766418860821],[18.247920943842285,49.775923823781781],[18.246995708247709,49.774768847096468],[18.244974595005285,49.775446680073166],[18.244842937310256,49.774942832543168],[18.244821137560958,49.774040571121922],[18.245027772040885,49.772489077529372],[18.244987508364101,49.771512229648934],[18.245368608985153,49.769290099670542],[18.249516219312017,49.769484940977513],[18.249041048215304,49.772841912515283],[18.248593993042761,49.773000840510406],[18.250029488004227,49.774588834491524],[18.249403590849383,49.774811338643545],[18.251456382439308,49.777095749312259],[18.252003113964303,49.777254975241995],[18.252174661972081,49.777246157599912],[18.254206781552622,49.779474186782743],[18.254891659705507,49.780303083419724],[18.254908250270205,49.780818882953277],[18.256893970816549,49.78297070611584],[18.259013658014172,49.783475004781195],[18.259167664226204,49.783170985864793],[18.260660831743305,49.783474843329863],[18.260603533901048,49.783692310368046],[18.26093696915796,49.783747663364394],[18.261349213041477,49.7840648403958],[18.261675377309395,49.784174949660056],[18.263356228657248,49.784562778468597],[18.265452708466814,49.785028882888462],[18.265571217118794,49.784778046790038],[18.266564294593646,49.784998819963569],[18.266357900019379,49.785483810273455],[18.268928867467974,49.786013034284835],[18.268809491882983,49.786484481456],[18.26925088055172,49.786582591814906],[18.268796279063295,49.787439924373466],[18.266450779151498,49.786923251623726],[18.26605735850832,49.787747205283921],[18.265143958054335,49.78756764234987],[18.265466463319708,49.786850071594003],[18.263541484724122,49.786375133758213],[18.262262227341026,49.786598102232603],[18.259475469798481,49.785983151951662],[18.259257793558429,49.786338788134863],[18.258175291115712,49.786149745969468],[18.257215657153122,49.788027030692106],[18.25707711806886,49.788000919987851],[18.256941567672829,49.788379518537738],[18.256251306236955,49.788230712376226],[18.256082699554387,49.788644244400935],[18.255673975693622,49.789154718859997],[18.254963881674083,49.789795497301391],[18.253692844623529,49.790809536043696],[18.253552401983914,49.791224635364031],[18.253439625343699,49.791218346346596],[18.253268027469861,49.791227165837192],[18.252742569128618,49.791547238864581],[18.251961436015485,49.792294371625367],[18.251562358312221,49.792731820264549],[18.251219663941139,49.793172413091263],[18.251301820059137,49.793195383954306],[18.250975227028789,49.794795341596569],[18.248449688616741,49.794562490834139],[18.24847642606003,49.794361710453138],[18.247632966936258,49.794296250437014],[18.247780279340017,49.793403439157586],[18.246908642500969,49.79333639933909],[18.247036516396307,49.792589610646644],[18.245203826909083,49.792487297137207],[18.245270471399898,49.791773866233697],[18.244986091774155,49.791776376567732],[18.245073637024962,49.791119277927081],[18.242686854260395,49.790912427034321],[18.242313466000901,49.791369672757142],[18.241883681246474,49.791823766173017],[18.241160777561756,49.792132763555813],[18.240516157086972,49.792280632176116],[18.239106415787095,49.792201853717302],[18.239041709035977,49.792474067304781],[18.238562394160368,49.792447278444996],[18.238490382583976,49.792774249443831],[18.237841896335802,49.792738002305505],[18.237890586852231,49.792372950305207],[18.236255287380327,49.792281529041261],[18.236302962348582,49.792137085040316],[18.232880279911488,49.791816945318644],[18.232403412614193,49.791771878298974],[18.231944993183021,49.791801397087283],[18.231622671527258,49.791875307014955],[18.230927896360456,49.792185818130505],[18.232890750648831,49.794079348515424],[18.234152249350117,49.794205074284463],[18.233948295404833,49.795094715823872],[18.234061081328754,49.795101023701555],[18.23386655202556,49.796984181807417],[18.233563010611064,49.797555643412387],[18.233509769460468,49.798380157943377],[18.23360970214598,49.799121295175368],[18.234135730833188,49.799224268070731],[18.234435136748427,49.799535228998408],[18.234662129653273,49.799750197259876],[18.23463186401322,49.80018983306821],[18.234739494149633,49.801299171639243],[18.234862409602737,49.80165542862791],[18.235218608580876,49.802392500619796],[18.235919510640279,49.803314339688505],[18.236399313147885,49.803764097717838],[18.237232546600161,49.804546213986676],[18.237642378304198,49.804881722646734],[18.23809259366536,49.805127545077923],[18.238646897701926,49.805232073209218],[18.238985325689331,49.805250982615739],[18.239759969880836,49.804981656147582],[18.239997758654852,49.804902998529698],[18.241082614943672,49.804650993456015],[18.242484980779668,49.80436154596029],[18.243261582724504,49.803650984686989],[18.244138261920394,49.803681544390173],[18.245415091730802,49.804120592784585],[18.245610071708231,49.80414986335839],[18.246235845399863,49.804570947705464],[18.246616083956077,49.804702497825723],[18.247751949672121,49.805133650848738],[18.249432443888367,49.80574227748027],[18.249612847626089,49.805881060040704],[18.249836042289115,49.805911896852251],[18.251013338934445,49.807099243173475],[18.251630432633718,49.80737270243565],[18.255440165167855,49.809276785995131],[18.257408371354455,49.810287467113241],[18.258258748893464,49.807098535118392],[18.258338859825859,49.806496190737441],[18.258475021499649,49.806540551987247],[18.25871498987765,49.805377079749753],[18.258865136459583,49.804888964685489],[18.259090178171959,49.804478575036391],[18.259324002705597,49.804215777292164],[18.259741597756001,49.803852885431226],[18.260106718702161,49.80367095192242],[18.260403299388496,49.803577140876925],[18.260769924023002,49.803597557979423],[18.26075870837947,49.80346821655484],[18.259249789030385,49.802850922635372],[18.258665189663567,49.802119609331235],[18.25866854322328,49.801880751235707],[18.259305373452989,49.801364581691551],[18.259763863482974,49.801334955866011],[18.260021603499084,49.801533192773029],[18.26074754570331,49.801628787254714],[18.260725707478173,49.801793064433923],[18.261964729117544,49.802303371869563],[18.262954812186472,49.802763031984],[18.262473568589812,49.803177553988235],[18.262787732266354,49.803378922940993],[18.266251734407874,49.803608490778231],[18.268429472935853,49.804538708437782],[18.268706653791732,49.804590901169433],[18.268710619586166,49.804775001769805],[18.267350674107597,49.806243939383457],[18.264694325910035,49.805066414865806],[18.261744520147417,49.807807522824888],[18.26428569985578,49.808997085636797],[18.263655198566205,49.809679125819841],[18.264220835175355,49.809912873521064],[18.263776537785635,49.810476561780249],[18.265008534406409,49.811041593198247],[18.265489572268308,49.811270626074993],[18.268422840439023,49.81207736428879],[18.270400442108251,49.812591856633539],[18.271943720140762,49.812953459469789],[18.270808443020549,49.814655580487312],[18.273004577679316,49.81523733230464],[18.273284244848444,49.815271260075995],[18.273489834471736,49.815006867894311],[18.273903280349344,49.815103391423257],[18.273992752934731,49.815071586983642],[18.275636863462623,49.815530675378362],[18.278053185159134,49.8157384174201],[18.278519061817359,49.815653957989106],[18.279737740356847,49.815464188062911],[18.28003435425013,49.815370327809084],[18.281393242118103,49.815408974013629],[18.283204272887904,49.81589560303604],[18.283617745097374,49.815992092245075],[18.28518701750022,49.816373338700281],[18.285623871471451,49.816507891352231],[18.286374273403563,49.817064352306581],[18.286770837569602,49.817288603948214],[18.288827012652241,49.817641631430838],[18.288989075297135,49.818349333130683],[18.28908505321456,49.819126921074229],[18.288919919873226,49.820588754324319],[18.288545989052842,49.821910303446764],[18.288396086720777,49.822398451243835],[18.288323571147515,49.822946051969488],[18.288318776010748,49.823626116786727],[18.288478434593735,49.82435206938181],[18.288753376234279,49.825066025344441],[18.28914118922788,49.825786233269582],[18.290103847006876,49.826887650961233],[18.291922032106676,49.828827097467517],[18.292561465714751,49.829579612946787],[18.29334200929905,49.830339938642176],[18.293989498480538,49.830817082310503],[18.294634583410616,49.831312477041209],[18.295425607868491,49.831779170831439],[18.296016696754325,49.832253179546932],[18.296438477196642,49.832717814010948],[18.29678043470151,49.833141254467151],[18.296943418600335,49.83362833762942],[18.296965303890726,49.834107611910767],[18.296729427936533,49.835675841781864],[18.296658645929412,49.836425793165994],[18.296424112991769,49.836909263348971],[18.295746160287287,49.837735932344856],[18.295037545342822,49.838579288851761],[18.294404679297831,49.83927973989428],[18.293908083246695,49.840024504789746],[18.293629139234078,49.840413577251198],[18.293236522027403,49.841017000101253],[18.29301401797197,49.841409198070096],[18.292629505803678,49.842380808997291],[18.291606926639716,49.842158702508549],[18.291277972900602,49.842710485757564],[18.289350555536018,49.842235989684852],[18.289248956274292,49.842359070830511],[18.288638889471812,49.842166674447661],[18.288934890130239,49.841722859796988],[18.287471539305646,49.841354146930023],[18.287774063974766,49.840826517589036],[18.285101643627311,49.840181950724975],[18.285266809420204,49.840226134305453],[18.283439414465768,49.843287429487361],[18.28266604280622,49.843115836821227],[18.282272450700678,49.843939825057973],[18.28191839683145,49.844251160974885],[18.281777268133286,49.844243334300742],[18.28097637757201,49.845136668226317],[18.281177980437754,49.845331721935658],[18.281255397279068,49.845391178246516],[18.280671379563461,49.846792993671329],[18.280185777221753,49.847667036589812],[18.279906681329837,49.848056075565907],[18.279488861000885,49.848419030852774],[18.278638669443662,49.849254456015458],[18.277986893175463,49.84988023806936],[18.277531124372196,49.850314632041993],[18.27725511486997,49.850487492522639],[18.278465379656954,49.851160930061297],[18.277399087775848,49.851946699175969],[18.27562758007484,49.85113289531219],[18.275528833956947,49.851206514781552],[18.275493518869119,49.851525442744126],[18.274982954438258,49.851515490603354],[18.274920795687915,49.851769463207297],[18.2739512774295,49.851789193149123],[18.273749529001989,49.852237677054973],[18.272961503985588,49.852175538164929],[18.272409022069343,49.852052923480706],[18.272390490429711,49.851978344304598],[18.271829178629343,49.851708137785508],[18.271201531234901,49.852151352883865],[18.270914378822354,49.852172179380716],[18.270579595107559,49.852337459188007],[18.270330373640096,49.85228684088662],[18.270200474805385,49.852408337047834],[18.270275465753361,49.852486052894662],[18.269808351544793,49.852791078982939]]]},"properties":{"OBJECTID":10,"SHAPE_Length":50262.841849039833,"SHAPE_Area":6659018.6271561114,"ID":5,"CISLO":"5","TEXT":"Území, na které se vztahuje nařízení města č. 2/2020, kterým se stanoví zákaz šíření reklamy na veřejně přístupných místech mimo provozovnu."}},{"type":"Feature","id":11,"geometry":{"type":"Polygon","coordinates":[[[18.336705107543033,49.812949081138171],[18.336529475026428,49.813722083134024],[18.336186993463539,49.814637644901751],[18.336038403272887,49.814829127482383],[18.335898437941271,49.815236717934013],[18.336143514451258,49.815250204031194],[18.336122924203291,49.815312962294662],[18.335873462712712,49.8158023772544],[18.335730869874347,49.816042108566783],[18.335474862131253,49.81629955698056],[18.335149242840899,49.816617065301287],[18.334892186663414,49.816882442122065],[18.334255521182104,49.817406449123027],[18.334047729486297,49.81757869898167],[18.333736157474185,49.817601480842463],[18.333607102095137,49.817738132146495],[18.333526276693782,49.817789587324711],[18.333409731066297,49.817831090857027],[18.333284059013895,49.817848131477028],[18.333127878556191,49.817815575265939],[18.333005334281456,49.817808829158835],[18.332830901926968,49.817727348701005],[18.332791268080026,49.817653289077398],[18.332807950805126,49.817526424571518],[18.33295447508036,49.817350803792714],[18.332496625564346,49.817078018511317],[18.331825505284126,49.81673758370647],[18.332384233300136,49.816337080731323],[18.333502245961402,49.816845869164645],[18.33370586647197,49.816705336388132],[18.334337570325808,49.816125154998254],[18.334743731460414,49.815476652374251],[18.335162640480981,49.814637178052827],[18.335300274185151,49.81434126924924],[18.335542154645282,49.813627819165276],[18.335757688804787,49.812833055066569],[18.336705107543033,49.812949081138171]]]},"properties":{"OBJECTID":11,"SHAPE_Length":1546.6171101215018,"SHAPE_Area":52018.542939120751,"ID":7,"CISLO":"7","TEXT":"Území, na které se vztahuje nařízení města č. 2/2020, kterým se stanoví zákaz šíření reklamy na veřejně přístupných místech mimo provozovnu."}},{"type":"Feature","id":12,"geometry":{"type":"Polygon","coordinates":[[[18.346349830426426,49.840078170933282],[18.345225447323031,49.841015262520123],[18.34545499417213,49.841335202076188],[18.345526522501697,49.841953798666097],[18.34539028333602,49.84195729320345],[18.345081241274666,49.841984226057967],[18.344432316506452,49.842014444127535],[18.343998620848488,49.842473577053497],[18.343754899740095,49.842778500859772],[18.342896591517068,49.842852090514469],[18.342164830033621,49.842866768978737],[18.34132480215688,49.842930375565921],[18.340946913757982,49.842964492020577],[18.340515608900574,49.843017623203906],[18.339976034022563,49.843119684166389],[18.3393676197446,49.843228936085538],[18.33876779608665,49.843272798195237],[18.338461608241907,49.843277919696973],[18.338040324540366,49.84325475948858],[18.337522232469976,49.843193345534445],[18.336748507829128,49.843139826050361],[18.336146161645555,49.843073773731597],[18.335455262420766,49.843035776634665],[18.33474321331224,49.843029540832262],[18.334141955631353,49.843084277728757],[18.333345298358708,49.843205095327676],[18.332325268460398,49.84334654641804],[18.332126988855819,49.842918532949199],[18.332717130860292,49.842819289574003],[18.333275002268429,49.842707291608875],[18.333776584492213,49.842636099529031],[18.334626301671712,49.842627961806535],[18.335894431072791,49.842664781419586],[18.337826577185705,49.842814931872162],[18.338603162712591,49.842846649344573],[18.338986779910179,49.842768950465071],[18.339570080680176,49.842592463220953],[18.340209325649347,49.842506858433133],[18.341083051073863,49.842445111894207],[18.343234920700933,49.842343816638746],[18.343227636123643,49.841882414345427],[18.343729193836698,49.841811179743047],[18.343614486440543,49.840487730273004],[18.344526165461399,49.840395115950173],[18.344420629032903,49.839906365124534],[18.346249681418591,49.839677527541049],[18.346349830426426,49.840078170933282]]]},"properties":{"OBJECTID":12,"SHAPE_Length":2647.9120031910597,"SHAPE_Area":78617.978136745733,"ID":8,"CISLO":"8","TEXT":"Území, na které se vztahuje nařízení města č. 2/2020, kterým se stanoví zákaz šíření reklamy na veřejně přístupných místech mimo provozovnu."}}]}